NORAD_CAT_ID,OBJECT_NAME,OBJECT_TYPE,EPOCH,MEAN_MOTION,ECCENTRICITY,INCLINATION,RA_OF_ASC_NODE,ARG_OF_PERICENTER,MEAN_ANOMALY,BSTAR,MEAN_MOTION_DOT,MEAN_MOTION_DDOT,TLE_LINE0,TLE_LINE1,TLE_LINE2,SEMIMAJOR_AXIS,PERIOD,APOGEE,PERIGEE,DECAYED
52466.0,STARLINK-3840,PAYLOAD,2024-03-19 07:35:23,15.08843152,0.0001495,53.2187,53.1734,79.0287,281.0873,2.7804e-05,1.55e-06,0.0,0 STARLINK-3840,1 52466U 22049R   24079.31624170  .00000155  00000-0  27804-4 0  9992,2 52466  53.2187  53.1734 0001495  79.0287 281.0873 15.08843152103499,6917.871,95.437,540.77,538.702,0.0
52466.0,STARLINK-3840,PAYLOAD,2024-03-20 04:15:24,15.0884068,0.0001301,53.2187,49.3075,94.5057,265.6084,7.3668e-06,-1.71e-06,0.0,0 STARLINK-3840,1 52466U 22049R   24080.17736150 -.00000171  00000-0  73668-5 0  9999,2 52466  53.2187  49.3075 0001301  94.5057 265.6084 15.08840680103627,6917.878,95.438,540.643,538.843,0.0
52466.0,STARLINK-3840,PAYLOAD,2024-03-21 04:06:11,15.08837556,0.0001221,53.2188,44.8469,96.7845,263.3286,-3.9647e-05,-9.19e-06,0.0,0 STARLINK-3840,1 52466U 22049R   24081.17096532 -.00000919  00000-0 -39647-4 0  9992,2 52466  53.2188  44.8469 0001221  96.7845 263.3286 15.08837556103936,6917.888,95.438,540.598,538.908,0.0
52466.0,STARLINK-3840,PAYLOAD,2024-03-21 07:16:57,15.08840758,0.0001176,53.2181,44.2504,103.1191,256.9933,-1.663e-05,-5.52e-06,0.0,0 STARLINK-3840,1 52466U 22049R   24081.30344197 -.00000552  00000-0 -16630-4 0  9990,2 52466  53.2181  44.2504 0001176 103.1191 256.9933 15.08840758103798,6917.878,95.438,540.557,538.93,0.0
52466.0,STARLINK-3840,PAYLOAD,2024-03-22 03:56:57,15.08843896,0.000128,53.2188,40.3828,95.5458,264.5681,0.00010728,1.42e-05,0.0,0 STARLINK-3840,1 52466U 22049R   24082.16455509  .00001420  00000-0  10728-3 0  9999,2 52466  53.2188  40.3828 0001280  95.5458 264.5681 15.08843896104081,6917.868,95.437,540.619,538.848,0.0
52466.0,STARLINK-3840,PAYLOAD,2024-03-23 03:47:45,15.08833343,0.0001211,53.2194,35.9224,93.4719,266.6412,1.5928e-05,-3.4e-07,0.0,0 STARLINK-3840,1 52466U 22049R   24083.15816535 -.00000034  00000-0  15928-4 0  9998,2 52466  53.2194  35.9224 0001211  93.4719 266.6412 15.08833343104237,6917.901,95.438,540.603,538.928,0.0
52466.0,STARLINK-3840,PAYLOAD,2024-03-23 06:58:31,15.0883318,0.0001339,53.2194,35.3328,102.3899,257.7243,8.4791e-06,-1.53e-06,0.0,0 STARLINK-3840,1 52466U 22049R   24083.29064653 -.00000153  00000-0  84791-5 0  9996,2 52466  53.2194  35.3328 0001339 102.3899 257.7243 15.08833180104092,6917.901,95.438,540.693,538.84,0.0
52466.0,STARLINK-3840,PAYLOAD,2024-03-24 03:38:32,15.08847706,0.0001423,53.2193,31.4672,108.1978,251.9169,-1.9816e-05,-6.03e-06,0.0,0 STARLINK-3840,1 52466U 22049R   24084.15175960 -.00000603  00000-0 -19816-4 0  9992,2 52466  53.2193  31.4672 0001423 108.1978 251.9169 15.08847706104380,6917.857,95.437,540.706,538.737,0.0
52466.0,STARLINK-3840,PAYLOAD,2024-03-25 05:04:40,15.08855769,0.0001388,53.2191,26.7085,97.5982,262.5168,0.00021369,3.116e-05,0.0,0 STARLINK-3840,1 52466U 22049R   24085.21158000  .00003116  00000-0  21369-3 0  9991,2 52466  53.2191  26.7085 0001388  97.5982 262.5168 15.08855769104542,6917.832,95.437,540.657,538.737,0.0
52466.0,STARLINK-3840,PAYLOAD,2024-03-25 13:01:35,15.08863235,0.0001436,53.2194,25.2215,86.5098,273.6058,0.00025514,3.777e-05,0.0,0 STARLINK-3840,1 52466U 22049R   24085.54277201  .00003777  00000-0  25514-3 0  9991,2 52466  53.2194  25.2215 0001436  86.5098 273.6058 15.08863235104430,6917.809,95.436,540.668,538.681,0.0
52466.0,STARLINK-3840,PAYLOAD,2024-03-26 04:55:30,15.08822322,0.0001356,53.2187,22.2482,86.4552,273.6595,-0.00024223,-4.139e-05,0.0,0 STARLINK-3840,1 52466U 22049R   24086.20521026 -.00004139  00000-0 -24223-3 0  9993,2 52466  53.2187  22.2482 0001356  86.4552 273.6595 15.08822322104696,6917.934,95.439,540.737,538.861,0.0
52466.0,STARLINK-3840,PAYLOAD,2024-03-26 12:52:25,15.08827179,0.0001298,53.219,20.7586,86.3211,273.793,-0.00018493,-3.229e-05,0.0,0 STARLINK-3840,1 52466U 22049R   24086.53640679 -.00003229  00000-0 -18493-3 0  9996,2 52466  53.2190  20.7586 0001298  86.3211 273.7930 15.08827179104749,6917.92,95.438,540.683,538.887,0.0
52466.0,STARLINK-3840,PAYLOAD,2024-03-26 19:13:58,15.08830248,0.0001283,53.2181,19.5726,89.7984,270.3155,-0.00025772,-4.386e-05,0.0,0 STARLINK-3840,1 52466U 22049R   24086.80136862 -.00004386  00000-0 -25772-3 0  9993,2 52466  53.2181  19.5726 0001283  89.7984 270.3155 15.08830248104629,6917.91,95.438,540.663,538.888,0.0
52466.0,STARLINK-3840,PAYLOAD,2024-03-27 01:35:29,15.08841619,0.0001241,53.2192,18.3824,91.5514,268.5621,-0.00013875,-2.495e-05,0.0,0 STARLINK-3840,1 52466U 22049R   24087.06631820 -.00002495  00000-0 -13875-3 0  9996,2 52466  53.2192  18.3824 0001241  91.5514 268.5621 15.08841619104824,6917.875,95.437,540.599,538.882,0.0
52466.0,STARLINK-3840,PAYLOAD,2024-03-27 12:43:11,15.08840577,0.0001364,53.2189,16.3005,93.3433,266.7715,-0.00014228,-2.552e-05,0.0,0 STARLINK-3840,1 52466U 22049R   24087.52999915 -.00002552  00000-0 -14228-3 0  9996,2 52466  53.2189  16.3005 0001364  93.3433 266.7715 15.08840577104731,6917.879,95.438,540.687,538.8,0.0
52466.0,STARLINK-3840,PAYLOAD,2024-03-27 19:04:44,15.08828029,0.0001265,53.219,15.1109,96.5889,263.5247,2.9246e-05,1.77e-06,0.0,0 STARLINK-3840,1 52466U 22049R   24087.79496191  .00000177  00000-0  29246-4 0  9999,2 52466  53.2190  15.1109 0001265  96.5889 263.5247 15.08828029104772,6917.917,95.438,540.657,538.907,0.0
52466.0,STARLINK-3840,PAYLOAD,2024-03-28 04:37:04,15.08811975,0.0001444,53.2199,13.3244,98.8819,261.2337,0.00016331,2.31e-05,0.0,0 STARLINK-3840,1 52466U 22049R   24088.19241228  .00002310  00000-0  16331-3 0  9994,2 52466  53.2199  13.3244 0001444  98.8819 261.2337 15.08811975104999,6917.966,95.439,540.83,538.832,0.0
52466.0,STARLINK-3840,PAYLOAD,2024-03-28 22:06:18,15.08819541,7.15e-05,53.2209,10.0542,118.234,241.8725,0.00034633,5.225e-05,0.0,0 STARLINK-3840,1 52466U 22049R   24088.92104780  .00005225  00000-0  34633-3 0  9999,2 52466  53.2209  10.0542 0000715 118.2340 241.8725 15.08819541104949,6917.943,95.439,540.303,539.313,0.0
52466.0,STARLINK-3840,PAYLOAD,2024-03-29 04:27:51,15.08831067,0.0001304,53.2192,8.8647,119.4941,240.6182,0.00013522,1.864e-05,0.0,0 STARLINK-3840,1 52466U 22049R   24089.18601022  .00001864  00000-0  13522-3 0  9998,2 52466  53.2192   8.8647 0001304 119.4941 240.6182 15.08831067105140,6917.908,95.438,540.675,538.871,0.0
52466.0,STARLINK-3840,PAYLOAD,2024-03-29 21:57:06,15.08828932,0.0001025,53.2182,5.5943,108.9892,251.1212,8.5008e-05,1.065e-05,0.0,0 STARLINK-3840,1 52466U 22049R   24089.91465623  .00001065  00000-0  85008-4 0  9996,2 52466  53.2182   5.5943 0001025 108.9892 251.1212 15.08828932105092,6917.914,95.438,540.488,539.07,0.0
52466.0,STARLINK-3840,PAYLOAD,2024-03-30 10:40:11,15.08827332,0.0001152,53.218,3.2155,105.0613,255.0507,0.00022351,3.27e-05,0.0,0 STARLINK-3840,1 52466U 22049R   24090.44457603  .00003270  00000-0  22351-3 0  9996,2 52466  53.2180   3.2155 0001152 105.0613 255.0507 15.08827332105330,6917.919,95.438,540.581,538.987,0.0
52466.0,STARLINK-3840,PAYLOAD,2024-03-30 21:47:53,15.08832557,0.000151,53.2197,1.1336,108.6849,251.4307,3.8269e-05,3.21e-06,0.0,0 STARLINK-3840,1 52466U 22049R   24090.90825867  .00000321  00000-0  38269-4 0  9998,2 52466  53.2197   1.1336 0001510 108.6849 251.4307 15.08832557105247,6917.903,95.438,540.813,538.724,0.0
52466.0,STARLINK-3840,PAYLOAD,2024-03-31 04:09:25,15.08841825,0.0001229,53.2189,359.9478,94.2799,265.8334,4.3291e-05,4.01e-06,0.0,0 STARLINK-3840,1 52466U 22049R   24091.17321348  .00000401  00000-0  43291-4 0  9993,2 52466  53.2189 359.9478 0001229  94.2799 265.8334 15.08841825105449,6917.875,95.437,540.59,538.89,0.0
52466.0,STARLINK-3840,PAYLOAD,2024-03-31 10:30:58,15.08840304,0.0001211,53.2187,358.758,93.6415,266.4716,-7.6295e-06,-4.09e-06,0.0,0 STARLINK-3840,1 52466U 22049R   24091.43817664 -.00000409  00000-0 -76295-5 0  9994,2 52466  53.2187 358.7580 0001211  93.6415 266.4716 15.08840304105326,6917.879,95.438,540.582,538.907,0.0
52466.0,STARLINK-3840,PAYLOAD,2024-03-31 21:38:40,15.08832419,0.0001271,53.2186,356.6767,90.6275,269.4863,1.8137e-05,1e-08,0.0,0 STARLINK-3840,1 52466U 22049R   24091.90186273  .00000001  00000-0  18137-4 0  9997,2 52466  53.2186 356.6767 0001271  90.6275 269.4863 15.08832419105397,6917.904,95.438,540.648,538.889,0.0
52466.0,STARLINK-3840,PAYLOAD,2024-04-01 04:00:13,15.08833332,0.0001257,53.2184,355.4856,89.3863,270.7273,1.7795e-06,-2.6e-06,0.0,0 STARLINK-3840,1 52466U 22049R   24092.16682361 -.00000260  00000-0  17795-5 0  9993,2 52466  53.2184 355.4856 0001257  89.3863 270.7273 15.08833332105590,6917.901,95.438,540.635,538.896,0.0
52466.0,STARLINK-3840,PAYLOAD,2024-04-01 10:21:45,15.08840756,0.0001296,53.2187,354.2969,82.3895,277.7245,3.1546e-05,2.14e-06,0.0,0 STARLINK-3840,1 52466U 22049R   24092.43177851  .00000214  00000-0  31546-4 0  9993,2 52466  53.2187 354.2969 0001296  82.3895 277.7245 15.08840756105635,6917.878,95.438,540.64,538.847,0.0
52466.0,STARLINK-3840,PAYLOAD,2024-04-02 02:15:37,15.08835263,0.0001231,53.2183,351.3232,93.1567,266.9566,-3.4515e-05,-8.37e-06,0.0,0 STARLINK-3840,1 52466U 22049R   24093.09418421 -.00000837  00000-0 -34515-4 0  9999,2 52466  53.2183 351.3232 0001231  93.1567 266.9566 15.08835263105731,6917.895,95.438,540.611,538.908,0.0
52466.0,STARLINK-3840,PAYLOAD,2024-04-02 10:12:32,15.08841721,0.0001146,53.2187,349.8373,90.4788,269.6336,1.713e-05,-1.5e-07,0.0,0 STARLINK-3840,1 52466U 22049R   24093.42537865 -.00000015  00000-0  17130-4 0  9991,2 52466  53.2187 349.8373 0001146  90.4788 269.6336 15.08841721105789,6917.875,95.437,540.533,538.947,0.0
52466.0,STARLINK-3840,PAYLOAD,2024-04-02 21:20:14,15.08835995,0.0001175,53.2186,347.7553,90.1447,269.968,5.0372e-05,5.14e-06,0.0,0 STARLINK-3840,1 52466U 22049R   24093.88906184  .00000514  00000-0  50372-4 0  9993,2 52466  53.2186 347.7553 0001175  90.1447 269.9680 15.08835995105697,6917.893,95.438,540.57,538.945,0.0
